{
  "type": "FeatureCollection",
  "features": [
    {
      "type": "Feature",
      "properties": {
        "norad_id": 58647,
        "name": "TIANMU-1 13",
        "group": "weather",
        "lat": 35.49479608754064,
        "lon": -4.32933217469414,
        "alt_km": 491.13555487482245,
        "timestamp": "2025-12-07T05:38:09.551578+00:00",
        "meta_object_name": "TIANMU-1 13",
        "meta_object_id": "2023-205C",
        "meta_epoch": "2025-12-06T13:43:31.703808",
        "meta_mean_motion": 15.24409547,
        "meta_eccentricity": 0.0006169,
        "meta_inclination": 97.3618,
        "meta_ra_of_asc_node": 0.3098,
        "meta_arg_of_pericenter": 295.413,
        "meta_mean_anomaly": 64.6469,
        "meta_ephemeris_type": 0,
        "meta_classification_type": "U",
        "meta_norad_cat_id": 58647,
        "meta_element_set_no": 999,
        "meta_rev_at_epoch": 10813,
        "meta_bstar": 0.00041210331,
        "meta_mean_motion_dot": 0.00010043,
        "meta_mean_motion_ddot": 0,
        "tle_line1": "1 58647U 23205C   25340.57189472  .00010043  00000+0  41210-3 0  9997",
        "tle_line2": "2 58647  97.3618   0.3098 0006169 295.4130  64.6469 15.24409547108131"
      },
      "geometry": {
        "type": "Point",
        "coordinates": [
          -4.32933217469414,
          35.49479608754064
        ]
      }
    },
    {
      "type": "Feature",
      "properties": {
        "norad_id": 58648,
        "name": "TIANMU-1 14",
        "group": "weather",
        "lat": 52.104014485863054,
        "lon": -170.1324948652255,
        "alt_km": 492.5576119324023,
        "timestamp": "2025-12-07T05:38:09.551588+00:00",
        "meta_object_name": "TIANMU-1 14",
        "meta_object_id": "2023-205D",
        "meta_epoch": "2025-12-06T14:54:03.100608",
        "meta_mean_motion": 15.24394393,
        "meta_eccentricity": 0.00070682,
        "meta_inclination": 97.3551,
        "meta_ra_of_asc_node": 359.7124,
        "meta_arg_of_pericenter": 299.7415,
        "meta_mean_anomaly": 60.3119,
        "meta_ephemeris_type": 0,
        "meta_classification_type": "U",
        "meta_norad_cat_id": 58648,
        "meta_element_set_no": 999,
        "meta_rev_at_epoch": 10814,
        "meta_bstar": 0.00042376244,
        "meta_mean_motion_dot": 0.00010326,
        "meta_mean_motion_ddot": 0,
        "tle_line1": "1 58648U 23205D   25340.62086922  .00010326  00000+0  42376-3 0  9998",
        "tle_line2": "2 58648  97.3551 359.7124 0007068 299.7415  60.3119 15.24394393108149"
      },
      "geometry": {
        "type": "Point",
        "coordinates": [
          -170.1324948652255,
          52.104014485863054
        ]
      }
    },
    {
      "type": "Feature",
      "properties": {
        "norad_id": 58660,
        "name": "TIANMU-1 19",
        "group": "weather",
        "lat": -43.139533153574426,
        "lon": 99.31760657590678,
        "alt_km": 487.2022176273258,
        "timestamp": "2025-12-07T05:38:09.551598+00:00",
        "meta_object_name": "TIANMU-1 19",
        "meta_object_id": "2023-208A",
        "meta_epoch": "2025-12-06T14:06:22.800096",
        "meta_mean_motion": 15.27681711,
        "meta_eccentricity": 0.00040631,
        "meta_inclination": 97.4398,
        "meta_ra_of_asc_node": 91.6383,
        "meta_arg_of_pericenter": 280.8101,
        "meta_mean_anomaly": 79.2681,
        "meta_ephemeris_type": 0,
        "meta_classification_type": "U",
        "meta_norad_cat_id": 58660,
        "meta_element_set_no": 999,
        "meta_rev_at_epoch": 10788,
        "meta_bstar": 0.00058496329,
        "meta_mean_motion_dot": 0.00015771,
        "meta_mean_motion_ddot": 0,
        "tle_line1": "1 58660U 23208A   25340.58776389  .00015771  00000+0  58496-3 0  9992",
        "tle_line2": "2 58660  97.4398  91.6383 0004063 280.8101  79.2681 15.27681711107886"
      },
      "geometry": {
        "type": "Point",
        "coordinates": [
          99.31760657590678,
          -43.139533153574426
        ]
      }
    },
    {
      "type": "Feature",
      "properties": {
        "norad_id": 58661,
        "name": "TIANMU-1 20",
        "group": "weather",
        "lat": 7.030244124250643,
        "lon": 91.80366700029744,
        "alt_km": 480.3230059680727,
        "timestamp": "2025-12-07T05:38:09.551608+00:00",
        "meta_object_name": "TIANMU-1 20",
        "meta_object_id": "2023-208B",
        "meta_epoch": "2025-12-06T13:53:50.026272",
        "meta_mean_motion": 15.28872623,
        "meta_eccentricity": 0.00063623,
        "meta_inclination": 97.4335,
        "meta_ra_of_asc_node": 92.0713,
        "meta_arg_of_pericenter": 291.9055,
        "meta_mean_anomaly": 68.1508,
        "meta_ephemeris_type": 0,
        "meta_classification_type": "U",
        "meta_norad_cat_id": 58661,
        "meta_element_set_no": 999,
        "meta_rev_at_epoch": 10795,
        "meta_bstar": 0.00053808147,
        "meta_mean_motion_dot": 0.00015042,
        "meta_mean_motion_ddot": 0,
        "tle_line1": "1 58661U 23208B   25340.57905123  .00015042  00000+0  53808-3 0  9995",
        "tle_line2": "2 58661  97.4335  92.0713 0006362 291.9055  68.1508 15.28872623107953"
      },
      "geometry": {
        "type": "Point",
        "coordinates": [
          91.80366700029744,
          7.030244124250643
        ]
      }
    },
    {
      "type": "Feature",
      "properties": {
        "norad_id": 58662,
        "name": "TIANMU-1 21",
        "group": "weather",
        "lat": -37.25188076028624,
        "lon": 100.31204346820225,
        "alt_km": 475.00083199541405,
        "timestamp": "2025-12-07T05:38:09.551618+00:00",
        "meta_object_name": "TIANMU-1 21",
        "meta_object_id": "2023-208C",
        "meta_epoch": "2025-12-06T14:07:02.894880",
        "meta_mean_motion": 15.31354317,
        "meta_eccentricity": 0.00059128,
        "meta_inclination": 97.4383,
        "meta_ra_of_asc_node": 93.9614,
        "meta_arg_of_pericenter": 286.0048,
        "meta_mean_anomaly": 74.0542,
        "meta_ephemeris_type": 0,
        "meta_classification_type": "U",
        "meta_norad_cat_id": 58662,
        "meta_element_set_no": 999,
        "meta_rev_at_epoch": 10805,
        "meta_bstar": 0.00058660342,
        "meta_mean_motion_dot": 0.00017716,
        "meta_mean_motion_ddot": 0,
        "tle_line1": "1 58662U 23208C   25340.58822795  .00017716  00000+0  58660-3 0  9991",
        "tle_line2": "2 58662  97.4383  93.9614 0005912 286.0048  74.0542 15.31354317108059"
      },
      "geometry": {
        "type": "Point",
        "coordinates": [
          100.31204346820225,
          -37.25188076028624
        ]
      }
    },
    {
      "type": "Feature",
      "properties": {
        "norad_id": 58663,
        "name": "TIANMU-1 22",
        "group": "weather",
        "lat": -37.3040991828271,
        "lon": 98.05893624289602,
        "alt_km": 487.86667032628793,
        "timestamp": "2025-12-07T05:38:09.551628+00:00",
        "meta_object_name": "TIANMU-1 22",
        "meta_object_id": "2023-208D",
        "meta_epoch": "2025-12-06T14:04:40.960416",
        "meta_mean_motion": 15.27447718,
        "meta_eccentricity": 0.00029106,
        "meta_inclination": 97.4391,
        "meta_ra_of_asc_node": 91.699,
        "meta_arg_of_pericenter": 316.862,
        "meta_mean_anomaly": 43.239,
        "meta_ephemeris_type": 0,
        "meta_classification_type": "U",
        "meta_norad_cat_id": 58663,
        "meta_element_set_no": 999,
        "meta_rev_at_epoch": 10789,
        "meta_bstar": 0.00053875418,
        "meta_mean_motion_dot": 0.00014412,
        "meta_mean_motion_ddot": 0,
        "tle_line1": "1 58663U 23208D   25340.58658519  .00014412  00000+0  53875-3 0  9996",
        "tle_line2": "2 58663  97.4391  91.6990 0002910 316.8620  43.2390 15.27447718107897"
      },
      "geometry": {
        "type": "Point",
        "coordinates": [
          98.05893624289602,
          -37.3040991828271
        ]
      }
    },
    {
      "type": "Feature",
      "properties": {
        "norad_id": 58700,
        "name": "TIANMU-1 15",
        "group": "weather",
        "lat": 30.232261641221413,
        "lon": -12.894815252839479,
        "alt_km": 494.3628959345633,
        "timestamp": "2025-12-07T05:38:09.551638+00:00",
        "meta_object_name": "TIANMU-1 15",
        "meta_object_id": "2024-004A",
        "meta_epoch": "2025-12-06T14:48:20.223936",
        "meta_mean_motion": 15.24556995,
        "meta_eccentricity": 0.00055379,
        "meta_inclination": 97.4624,
        "meta_ra_of_asc_node": 162.1088,
        "meta_arg_of_pericenter": 323.6318,
        "meta_mean_anomaly": 36.4543,
        "meta_ephemeris_type": 0,
        "meta_classification_type": "U",
        "meta_norad_cat_id": 58700,
        "meta_element_set_no": 999,
        "meta_rev_at_epoch": 10641,
        "meta_bstar": 0.00043594139,
        "meta_mean_motion_dot": 0.00010673,
        "meta_mean_motion_ddot": 0,
        "tle_line1": "1 58700U 24004A   25340.61690074  .00010673  00000+0  43594-3 0  9991",
        "tle_line2": "2 58700  97.4624 162.1088 0005537 323.6318  36.4543 15.24556995106414"
      },
      "geometry": {
        "type": "Point",
        "coordinates": [
          -12.894815252839479,
          30.232261641221413
        ]
      }
    }
  ]
}